ORBCOMM-X               
1 21576U 91050C   25069.78968000  .00000624  00000+0  19872-3 0  9997
2 21576  98.3538 138.3561 0004784 117.9414 242.2261 14.43127452767929
ORBCOMM FM01            
1 23545U 95017A   25070.07538920  .00009075  00000+0  99070-3 0  9997
2 23545  69.9654 318.5030 0002276 181.6017 178.5129 14.88176951598253
ORBCOMM FM10            
1 25113U 97084B   25069.59968733  .00002347  00000+0  70645-3 0  9992
2 25113  45.0142 123.1795 0002132  63.9293 296.1778 14.45047839602258
ORBCOMM FM11            
1 25114U 97084C   25069.58734939  .00002347  00000+0  70981-3 0  9994
2 25114  45.0125 123.6949 0002929  70.7576 289.3592 14.44805806427247
ORBCOMM FM12            
1 25115U 97084D   25069.55133495  .00002467  00000+0  74391-3 0  9994
2 25115  45.0133 123.6287 0001982  61.7539 298.3512 14.44824512427246
